     2              NAVIGATION DATA                         RINEX VERSION / TYPE
CCRINEXN V1.6.0 UX  CDDIS               21-DEC-16 17:31     PGM / RUN BY / DATE 
IGS BROADCAST EPHEMERIS FILE                                COMMENT             
    0.8382D-08 -0.1490D-07 -0.5960D-07  0.1192D-06          ION ALPHA           
    0.9421D+05 -0.1311D+06 -0.1311D+06  0.8520D+06          ION BETA            
    0.279396772385D-08 0.976996261670D-14   405504     1928 DELTA-UTC: A0,A1,T,W
    17                                                      LEAP SECONDS        
                                                            END OF HEADER       
 4 16 12 20  8  0  0.0 0.109649263322D-04-0.118234311230D-10 0.000000000000D+00
    0.108000000000D+03-0.647500000000D+02 0.520450250271D-08 0.707475330124D+00
   -0.331550836563D-05 0.131970623042D-01 0.641867518425D-05 0.515369614029D+04
    0.201600000000D+06-0.163912773132D-06 0.330092765186D+00 0.894069671631D-07
    0.944334092243D+00 0.249062500000D+03 0.120531117574D+01-0.867857578323D-08
   -0.227152318949D-09 0.100000000000D+01 0.192800000000D+04 0.000000000000D+00
    0.200000000000D+01 0.630000000000D+02-0.651925802231D-08 0.108000000000D+03
    0.194400000000D+06 0.400000000000D+01 0.000000000000D+00 0.000000000000D+00
 5 16 12 20  8  0  0.0-0.710673630238D-04 0.227373675443D-11 0.000000000000D+00
    0.590000000000D+02-0.265625000000D+02 0.477805617294D-08-0.238304635593D+01
   -0.138394534588D-05 0.491655024234D-02 0.986456871033D-05 0.515365337181D+04
    0.201600000000D+06 0.931322574616D-08 0.139273049410D+01-0.372529029846D-07
    0.946179553159D+00 0.182875000000D+03 0.563967581113D+00-0.803462008037D-08
    0.510735551074D-10 0.100000000000D+01 0.192800000000D+04 0.000000000000D+00
    0.200000000000D+01 0.000000000000D+00-0.107102096081D-07 0.590000000000D+02
    0.194400000000D+06 0.000000000000D+00 0.000000000000D+00 0.000000000000D+00
 6 16 12 20  8  0  0.0 0.288327690214D-03 0.500222085975D-11 0.000000000000D+00
    0.790000000000D+02-0.649687500000D+02 0.454411785218D-08 0.135411011658D+01
   -0.344216823578D-05 0.423339544796D-03 0.631250441074D-05 0.515358433533D+04
    0.201600000000D+06 0.745058059692D-08 0.357119888505D+00 0.149011611938D-07
    0.966083940474D+00 0.261187500000D+03-0.145763464968D+01-0.815676833357D-08
   -0.149291932894D-09 0.100000000000D+01 0.192800000000D+04 0.000000000000D+00
    0.200000000000D+01 0.000000000000D+00 0.419095158577D-08 0.790000000000D+02
    0.198870000000D+06 0.400000000000D+01 0.000000000000D+00 0.000000000000D+00
 8 16 12 20  8  0  0.0-0.430489890277D-04-0.136424205266D-11 0.000000000000D+00
    0.780000000000D+02 0.192812500000D+02 0.467090884782D-08-0.244780750834D+01
    0.112503767013D-05 0.225453590974D-02 0.523030757904D-05 0.515355866623D+04
    0.201600000000D+06 0.558793544769D-08-0.696125338723D+00 0.186264514923D-07
    0.965421507761D+00 0.280937500000D+03-0.967557419359D+00-0.822248535666D-08
    0.274654297597D-09 0.100000000000D+01 0.192800000000D+04 0.000000000000D+00
    0.290000000000D+01 0.000000000000D+00 0.512227416039D-08 0.780000000000D+02
    0.194400000000D+06 0.400000000000D+01 0.000000000000D+00 0.000000000000D+00
 9 16 12 20  8  0  0.0 0.267175491899D-03 0.738964445190D-11 0.000000000000D+00
    0.280000000000D+02 0.412187500000D+02 0.477377027526D-08-0.294901926857D+01
    0.220537185669D-05 0.824074377306D-03 0.744313001633D-05 0.515372212791D+04
    0.201600000000D+06-0.186264514923D-08 0.244523899432D+01-0.447034835815D-07
    0.954055763658D+00 0.233125000000D+03 0.172508849137D+01-0.815319675623D-08
    0.135362781260D-09 0.100000000000D+01 0.192800000000D+04 0.000000000000D+00
    0.200000000000D+01 0.000000000000D+00 0.139698386192D-08 0.280000000000D+02
    0.194418000000D+06 0.400000000000D+01 0.000000000000D+00 0.000000000000D+00
10 16 12 20  8  0  0.0-0.115847215056D-03 0.454747350886D-12 0.000000000000D+00
    0.570000000000D+02-0.984375000000D+01 0.443304179684D-08-0.106408269259D+01
   -0.631436705589D-06 0.200561597012D-02 0.102687627077D-04 0.515367568588D+04
    0.201600000000D+06 0.521540641785D-07 0.140359459920D+01-0.111758708954D-06
    0.959371242852D+00 0.183750000000D+03-0.294886950965D+01-0.785747015231D-08
   -0.482162941165D-10 0.100000000000D+01 0.192800000000D+04 0.000000000000D+00
    0.200000000000D+01 0.000000000000D+00 0.232830643654D-08 0.570000000000D+02
    0.194400000000D+06 0.400000000000D+01 0.000000000000D+00 0.000000000000D+00
11 16 12 20  8  0  0.0-0.671294983476D-03 0.306954461848D-11 0.000000000000D+00
    0.126000000000D+03-0.439375000000D+02 0.642133890311D-08 0.390321962705D+00
   -0.223331153393D-05 0.166857141303D-01 0.460445880890D-05 0.515368697166D+04
    0.201600000000D+06-0.219792127609D-06-0.258398921524D-01-0.726431608200D-07
    0.899319285172D+00 0.261312500000D+03 0.160662681713D+01-0.941146345380D-08
   -0.592881838765D-10 0.100000000000D+01 0.192800000000D+04 0.000000000000D+00
    0.200000000000D+01 0.000000000000D+00-0.121071934700D-07 0.126000000000D+03
    0.197730000000D+06 0.400000000000D+01 0.000000000000D+00 0.000000000000D+00
13 16 12 20  8  0  0.0-0.609098933637D-04-0.193267624127D-11 0.000000000000D+00
    0.470000000000D+02 0.441875000000D+02 0.440625496678D-08 0.137238395296D+01
    0.229105353355D-05 0.405909330584D-02 0.723078846932D-05 0.515368610001D+04
    0.201600000000D+06 0.372529029846D-07 0.256904867135D+01-0.968575477600D-07
    0.970352457475D+00 0.244937500000D+03 0.186760880872D+01-0.802569144512D-08
    0.124290891500D-09 0.100000000000D+01 0.192800000000D+04 0.000000000000D+00
    0.200000000000D+01 0.000000000000D+00-0.111758708954D-07 0.470000000000D+02
    0.194400000000D+06 0.400000000000D+01 0.000000000000D+00 0.000000000000D+00
14 16 12 20  8  0  0.0-0.503468327224D-04-0.170530256582D-11 0.000000000000D+00
    0.390000000000D+02 0.449375000000D+02 0.447804367135D-08 0.270106058480D+01
    0.230967998505D-05 0.863638659939D-02 0.671856105328D-05 0.515360729027D+04
    0.201600000000D+06 0.102445483208D-06 0.253066575616D+01-0.353902578354D-07
    0.962830453090D+00 0.249218750000D+03-0.194873395211D+01-0.789675750307D-08
    0.135005623526D-09 0.100000000000D+01 0.192800000000D+04 0.000000000000D+00
    0.200000000000D+01 0.000000000000D+00-0.931322574616D-08 0.390000000000D+02
    0.194400000000D+06 0.400000000000D+01 0.000000000000D+00 0.000000000000D+00
15 16 12 20  8  0  0.0-0.338005367667D-03-0.113686837722D-11 0.000000000000D+00
    0.380000000000D+02 0.438125000000D+02 0.529807782906D-08 0.231210091336D+01
    0.222027301788D-05 0.895573350135D-02 0.748597085476D-05 0.515371908379D+04
    0.201600000000D+06-0.180676579475D-06 0.238757847760D+01-0.968575477600D-07
    0.929675495093D+00 0.220125000000D+03 0.549883444098D+00-0.839034949173D-08
    0.117862052285D-09 0.100000000000D+01 0.192800000000D+04 0.000000000000D+00
    0.200000000000D+01 0.000000000000D+00-0.107102096081D-07 0.380000000000D+02
    0.194400000000D+06 0.400000000000D+01 0.000000000000D+00 0.000000000000D+00
16 16 12 20  8  0  0.0 0.200713984668D-04 0.136424205266D-11 0.000000000000D+00
    0.210000000000D+02 0.295625000000D+02 0.376801409577D-08-0.220000242513D+01
    0.122562050819D-05 0.888749770820D-02 0.916607677937D-05 0.515362046242D+04
    0.201600000000D+06 0.260770320892D-07-0.166018466055D+01-0.152736902237D-06
    0.990200216694D+00 0.219187500000D+03 0.381536535454D+00-0.765996192530D-08
    0.128576784311D-09 0.100000000000D+01 0.192800000000D+04 0.000000000000D+00
    0.200000000000D+01 0.000000000000D+00-0.102445483208D-07 0.210000000000D+02
    0.194400000000D+06 0.400000000000D+01 0.000000000000D+00 0.000000000000D+00
17 16 12 20  8  0  0.0-0.196579843759D-03 0.909494701773D-12 0.000000000000D+00
    0.550000000000D+02 0.696875000000D+01 0.426696345044D-08 0.302482372478D+01
    0.391155481339D-06 0.115651206579D-01 0.556744635105D-05 0.515355332375D+04
    0.201600000000D+06 0.130385160446D-06-0.640710800634D+00-0.217929482460D-06
    0.978631115274D+00 0.278125000000D+03-0.189194000223D+01-0.790497213096D-08
    0.192508018732D-09 0.100000000000D+01 0.192800000000D+04 0.000000000000D+00
    0.280000000000D+01 0.000000000000D+00-0.107102096081D-07 0.550000000000D+02
    0.194400000000D+06 0.400000000000D+01 0.000000000000D+00 0.000000000000D+00
18 16 12 20  8  0  0.0 0.585450790822D-03 0.295585778076D-11 0.000000000000D+00
    0.760000000000D+02-0.117812500000D+02 0.521771733887D-08-0.165286432235D+01
   -0.568106770515D-06 0.173478811048D-01 0.954605638981D-05 0.515373308373D+04
    0.201600000000D+06 0.394880771637D-06 0.136714953552D+01 0.286847352982D-06
    0.924913785983D+00 0.175093750000D+03-0.184434718094D+01-0.818141221723D-08
   -0.675028117631D-10 0.100000000000D+01 0.192800000000D+04 0.000000000000D+00
    0.200000000000D+01 0.000000000000D+00-0.111758708954D-07 0.760000000000D+02
    0.194400000000D+06 0.400000000000D+01 0.000000000000D+00 0.000000000000D+00
19 16 12 20  8  0  0.0-0.517674256116D-03 0.795807864051D-12 0.000000000000D+00
    0.790000000000D+02 0.575000000000D+01 0.443947063606D-08-0.675027442860D-01
    0.419095158577D-06 0.102305267937D-01 0.573880970478D-05 0.515363996506D+04
    0.201600000000D+06-0.465661287308D-07-0.592486542940D+00 0.949949026108D-07
    0.975841274906D+00 0.278375000000D+03 0.898553978597D+00-0.829034532616D-08
    0.193222334200D-09 0.100000000000D+01 0.192800000000D+04 0.000000000000D+00
    0.200000000000D+01 0.000000000000D+00-0.149011611938D-07 0.790000000000D+02
    0.194400000000D+06 0.400000000000D+01 0.000000000000D+00 0.000000000000D+00
